{
  "type": "FeatureCollection",
  "features": [
    {
      "type": "Feature",
      "properties": {
        "norad_id": 66406,
        "name": "STARLINK-34840",
        "group": "last-30-days",
        "lat": -36.04375692780616,
        "lon": -83.71930217036505,
        "alt_km": 423.8047914144281,
        "timestamp": "2025-12-03T04:52:28.419646+00:00",
        "meta_object_name": "STARLINK-34840",
        "meta_object_id": "2025-257AC",
        "meta_epoch": "2025-12-02T16:00:03.000096",
        "meta_mean_motion": 15.49322953,
        "meta_eccentricity": 0.00013324,
        "meta_inclination": 53.1585,
        "meta_ra_of_asc_node": 311.9125,
        "meta_arg_of_pericenter": 90.0079,
        "meta_mean_anomaly": 109.2718,
        "meta_ephemeris_type": 0,
        "meta_classification_type": "U",
        "meta_norad_cat_id": 66406,
        "meta_element_set_no": 999,
        "meta_rev_at_epoch": 481,
        "meta_bstar": -0.0013163628,
        "meta_mean_motion_dot": -0.00073016,
        "meta_mean_motion_ddot": 0,
        "tle_line1": "1 66406U 25257AC  25336.66670139 -.00073016  00000+0 -13164-2 0  9995",
        "tle_line2": "2 66406  53.1585 311.9125 0001332  90.0079 109.2718 15.49322953  4811"
      },
      "geometry": {
        "type": "Point",
        "coordinates": [
          -83.71930217036505,
          -36.04375692780616
        ]
      }
    },
    {
      "type": "Feature",
      "properties": {
        "norad_id": 66407,
        "name": "STARLINK-35686",
        "group": "last-30-days",
        "lat": -38.534287710452176,
        "lon": -87.30988625872257,
        "alt_km": 423.96467727183517,
        "timestamp": "2025-12-03T04:52:28.419658+00:00",
        "meta_object_name": "STARLINK-35686",
        "meta_object_id": "2025-257AD",
        "meta_epoch": "2025-12-02T20:00:03.000384",
        "meta_mean_motion": 15.49297123,
        "meta_eccentricity": 0.0001395,
        "meta_inclination": 53.1584,
        "meta_ra_of_asc_node": 311.1226,
        "meta_arg_of_pericenter": 99.5079,
        "meta_mean_anomaly": 306.0598,
        "meta_ephemeris_type": 0,
        "meta_classification_type": "U",
        "meta_norad_cat_id": 66407,
        "meta_element_set_no": 999,
        "meta_rev_at_epoch": 490,
        "meta_bstar": -0.00029317,
        "meta_mean_motion_dot": -0.00016711,
        "meta_mean_motion_ddot": 0,
        "tle_line1": "1 66407U 25257AD  25336.83336806 -.00016711  00000+0 -29317-3 0  9992",
        "tle_line2": "2 66407  53.1584 311.1226 0001395  99.5079 306.0598 15.49297123  4901"
      },
      "geometry": {
        "type": "Point",
        "coordinates": [
          -87.30988625872257,
          -38.534287710452176
        ]
      }
    },
    {
      "type": "Feature",
      "properties": {
        "norad_id": 66408,
        "name": "STARLINK-35679",
        "group": "last-30-days",
        "lat": -37.29163701997353,
        "lon": -85.46830149580103,
        "alt_km": 423.8320004760553,
        "timestamp": "2025-12-03T04:52:28.419669+00:00",
        "meta_object_name": "STARLINK-35679",
        "meta_object_id": "2025-257AE",
        "meta_epoch": "2025-12-02T20:00:03.000384",
        "meta_mean_motion": 15.49290615,
        "meta_eccentricity": 0.0001354,
        "meta_inclination": 53.1584,
        "meta_ra_of_asc_node": 311.1197,
        "meta_arg_of_pericenter": 97.1751,
        "meta_mean_anomaly": 310.311,
        "meta_ephemeris_type": 0,
        "meta_classification_type": "U",
        "meta_norad_cat_id": 66408,
        "meta_element_set_no": 999,
        "meta_rev_at_epoch": 490,
        "meta_bstar": -3.0802e-05,
        "meta_mean_motion_dot": -2.16e-05,
        "meta_mean_motion_ddot": 0,
        "tle_line1": "1 66408U 25257AE  25336.83336806 -.00002160  00000+0 -30802-4 0  9998",
        "tle_line2": "2 66408  53.1584 311.1197 0001354  97.1751 310.3110 15.49290615  4902"
      },
      "geometry": {
        "type": "Point",
        "coordinates": [
          -85.46830149580103,
          -37.29163701997353
        ]
      }
    },
    {
      "type": "Feature",
      "properties": {
        "norad_id": 66409,
        "name": "CHUTIAN-2 A",
        "group": "last-30-days",
        "lat": 3.606435412033104,
        "lon": 41.60695382927119,
        "alt_km": 737.0295039637012,
        "timestamp": "2025-12-03T04:52:28.419679+00:00",
        "meta_object_name": "CHUTIAN-2 A",
        "meta_object_id": "2025-256A",
        "meta_epoch": "2025-12-02T20:34:35.562720",
        "meta_mean_motion": 14.49915356,
        "meta_eccentricity": 0.0013178,
        "meta_inclination": 98.2775,
        "meta_ra_of_asc_node": 41.7931,
        "meta_arg_of_pericenter": 207.8002,
        "meta_mean_anomaly": 152.249,
        "meta_ephemeris_type": 0,
        "meta_classification_type": "U",
        "meta_norad_cat_id": 66409,
        "meta_element_set_no": 999,
        "meta_rev_at_epoch": 344,
        "meta_bstar": 3.394e-05,
        "meta_mean_motion_dot": 8.7e-07,
        "meta_mean_motion_ddot": 0,
        "tle_line1": "1 66409U 25256A   25336.85735605  .00000087  00000+0  33940-4 0  9990",
        "tle_line2": "2 66409  98.2775  41.7931 0013178 207.8002 152.2490 14.49915356  3440"
      },
      "geometry": {
        "type": "Point",
        "coordinates": [
          41.60695382927119,
          3.606435412033104
        ]
      }
    },
    {
      "type": "Feature",
      "properties": {
        "norad_id": 66410,
        "name": "CHUTIAN-2 B",
        "group": "last-30-days",
        "lat": 62.257571320100574,
        "lon": 26.092047025101323,
        "alt_km": 724.220850629662,
        "timestamp": "2025-12-03T04:52:28.419690+00:00",
        "meta_object_name": "CHUTIAN-2 B",
        "meta_object_id": "2025-256B",
        "meta_epoch": "2025-12-02T20:18:27.168192",
        "meta_mean_motion": 14.51003399,
        "meta_eccentricity": 0.0013266,
        "meta_inclination": 98.2801,
        "meta_ra_of_asc_node": 41.8146,
        "meta_arg_of_pericenter": 211.8897,
        "meta_mean_anomaly": 148.1496,
        "meta_ephemeris_type": 0,
        "meta_classification_type": "U",
        "meta_norad_cat_id": 66410,
        "meta_element_set_no": 999,
        "meta_rev_at_epoch": 344,
        "meta_bstar": 0.00024093,
        "meta_mean_motion_dot": 9.1e-06,
        "meta_mean_motion_ddot": 0,
        "tle_line1": "1 66410U 25256B   25336.84614778  .00000910  00000+0  24093-3 0  9991",
        "tle_line2": "2 66410  98.2801  41.8146 0013266 211.8897 148.1496 14.51003399  3444"
      },
      "geometry": {
        "type": "Point",
        "coordinates": [
          26.092047025101323,
          62.257571320100574
        ]
      }
    },
    {
      "type": "Feature",
      "properties": {
        "norad_id": 66411,
        "name": "ZK-1A R/B",
        "group": "last-30-days",
        "lat": 81.47430996913565,
        "lon": -33.34053404898645,
        "alt_km": 711.9749938612931,
        "timestamp": "2025-12-03T04:52:28.419702+00:00",
        "meta_object_name": "ZK-1A R/B",
        "meta_object_id": "2025-256C",
        "meta_epoch": "2025-12-02T20:28:38.025696",
        "meta_mean_motion": 15.0159784,
        "meta_eccentricity": 0.0229688,
        "meta_inclination": 98.325,
        "meta_ra_of_asc_node": 43.9162,
        "meta_arg_of_pericenter": 278.0274,
        "meta_mean_anomaly": 79.4945,
        "meta_ephemeris_type": 0,
        "meta_classification_type": "U",
        "meta_norad_cat_id": 66411,
        "meta_element_set_no": 999,
        "meta_rev_at_epoch": 356,
        "meta_bstar": 0.00074848,
        "meta_mean_motion_dot": 0.00017171,
        "meta_mean_motion_ddot": 0,
        "tle_line1": "1 66411U 25256C   25336.85321789  .00017171  00000+0  74848-3 0  9990",
        "tle_line2": "2 66411  98.3250  43.9162 0229688 278.0274  79.4945 15.01597840  3569"
      },
      "geometry": {
        "type": "Point",
        "coordinates": [
          -33.34053404898645,
          81.47430996913565
        ]
      }
    },
    {
      "type": "Feature",
      "properties": {
        "norad_id": 66412,
        "name": "HULIANWANG DIGUI 13A",
        "group": "last-30-days",
        "lat": -27.308534020542943,
        "lon": 147.79796285622237,
        "alt_km": 819.8908484451713,
        "timestamp": "2025-12-03T04:52:28.419713+00:00",
        "meta_object_name": "HULIANWANG DIGUI 13A",
        "meta_object_id": "2025-258A",
        "meta_epoch": "2025-12-02T16:03:56.020032",
        "meta_mean_motion": 14.23490832,
        "meta_eccentricity": 0.00139914,
        "meta_inclination": 50.0039,
        "meta_ra_of_asc_node": 304.3564,
        "meta_arg_of_pericenter": 322.3046,
        "meta_mean_anomaly": 37.6886,
        "meta_ephemeris_type": 0,
        "meta_classification_type": "U",
        "meta_norad_cat_id": 66412,
        "meta_element_set_no": 999,
        "meta_rev_at_epoch": 322,
        "meta_bstar": 0.00010475171,
        "meta_mean_motion_dot": 8.1e-07,
        "meta_mean_motion_ddot": 0,
        "tle_line1": "1 66412U 25258A   25336.66939838  .00000081  00000+0  10475-3 0  9990",
        "tle_line2": "2 66412  50.0039 304.3564 0013991 322.3046  37.6886 14.23490832  3227"
      },
      "geometry": {
        "type": "Point",
        "coordinates": [
          147.79796285622237,
          -27.308534020542943
        ]
      }
    }
  ]
}